BEIDOU-3S IGSO-1S       
1 40549U 15019A   26156.86652485 -.00000162  00000+0  00000+0 0  9990
2 40549  49.2179 295.5981 0038537 191.1976 171.8396  1.00253453 40962
NAVSTAR 74 (USA 262)    
1 40730U 15033A   26156.25475303 -.00000026  00000+0  00000+0 0  9992
2 40730  53.9920 267.5786 0115057  30.1861 330.4960  2.00556964 79753
BEIDOU-3S M2S           
1 40748U 15037A   26156.51044521 -.00000055  00000+0  00000+0 0  9990
2 40748  54.8818 302.4477 0007883 262.1990  97.7004  1.86232430 73906
BEIDOU-3S M1S           
1 40749U 15037B   26156.18239155 -.00000056  00000+0  00000+0 0  9994
2 40749  54.8788 302.4474 0003661  60.2130 299.8113  1.86254929 73906
GSAT0205 (GALILEO 9)    
1 40889U 15045A   26144.30399159 -.00000014  00000+0  00000+0 0  9994
2 40889  54.9357 222.4171 0006405 263.0112  96.9692  1.67409242 66562
GSAT0206 (GALILEO 10)   
1 40890U 15045B   26156.13904875  .00000041  00000+0  00000+0 0  9996
2 40890  54.9479 221.9374 0001753 334.1695  25.9104  1.70473949 66834
BEIDOU-3S IGSO-2S       
1 40938U 15053A   26156.75858443 -.00000135  00000+0  00000+0 0  9990
2 40938  49.2404 258.9193 0064947 192.0437 172.0457  1.00262312 39243
NAVSTAR 75 (USA 265)    
1 41019U 15062A   26156.31132486 -.00000068  00000+0  00000+0 0  9990
2 41019  56.9514  31.2688 0111581 231.1680 127.8846  2.00567113 77592
GSAT-15                 
1 41028U 15065A   26156.93823701 -.00000245  00000+0  00000+0 0  9995
2 41028   0.0467 114.6322 0004180 323.2410 247.7685  1.00271204 38682
GSAT0209 (GALILEO 12)   
1 41174U 15079A   26156.30703759  .00000019  00000+0  00000+0 0  9991
2 41174  55.8207 101.5878 0005440 339.2511  20.6937  1.70473904 64577
GSAT0208 (GALILEO 11)   
1 41175U 15079B   26154.18097635  .00000008  00000+0  00000+0 0  9993
2 41175  55.8180 101.6428 0004856 341.4145  18.5225  1.70473818 64950
IRNSS-1E                
1 41241U 16003A   26156.94409950 -.00000295  00000+0  00000+0 0  9997
2 41241  33.2108  59.9132 0017885 179.6163 106.4591  1.00270338 37967
NAVSTAR 76 (USA 266)    
1 41328U 16007A   26155.90285179  .00000004  00000+0  00000+0 0  9994
2 41328  55.5169  89.9466 0096310 247.3906 111.5783  2.00552419 75593
COSMOS 2514 [GLONASS-M] 
1 41330U 16008A   26156.55367219 -.00000032  00000+0  00000+0 0  9998
2 41330  65.0292 313.4058 0010851 197.3456 162.6115  2.13102685 80379
BEIDOU-2 IGSO-6         
1 41434U 16021A   26157.01392066 -.00000145  00000+0  00000+0 0  9993
2 41434  60.2097  38.1520 0057221 231.5167  83.2996  1.00261920 37360
IRNSS-1G                
1 41469U 16027A   26156.80273028 -.00000321  00000+0  00000+0 0  9995
2 41469   5.1702  97.7362 0007442 351.9930 223.0710  1.00271950 37068
GSAT0211 (GALILEO 14)   
1 41549U 16030A   26156.65135299  .00000041  00000+0  00000+0 0  9996
2 41549  55.0990 222.0126 0002678 329.1456  30.9257  1.70474112 62473
GSAT0210 (GALILEO 13)   
1 41550U 16030B   26155.73546720  .00000041  00000+0  00000+0 0  9991
2 41550  55.0978 222.0357 0003015 229.1415 130.9222  1.70474170 62452
EUTELSAT 117 WEST B     
1 41589U 16038B   26156.61132244  .00000001  00000+0  00000+0 0  9997
2 41589   0.0104 144.4859 0000223 204.6601   7.9647  1.00270561 36548
GSAT0207 (GALILEO 15)   
1 41859U 16069A   26156.60027716  .00000019  00000+0  00000+0 0  9996
2 41859  55.4919 101.4069 0005483 326.6473  33.2866  1.70473771 59205
GSAT0212 (GALILEO 16)   
1 41860U 16069B   26154.10735617  .00000006  00000+0  00000+0 0  9993
2 41860  55.4882 101.4709 0004693 352.8898   7.0579  1.70474020 59412
GSAT0213 (GALILEO 17)   
1 41861U 16069C   26156.23439190  .00000017  00000+0  00000+0 0  9999
2 41861  55.4909 101.4200 0005209 311.1245  48.7972  1.70474348 59318
GSAT0214 (GALILEO 18)   
1 41862U 16069D   26155.20740261  .00000012  00000+0  00000+0 0  9995
2 41862  55.4897 101.4409 0004328 318.0236  41.9042  1.70474030 59426
QZS-2 (MICHIBIKI-2)     
1 42738U 17028A   26156.52533119 -.00000153  00000+0  00000+0 0  9999
2 42738  39.4451 243.3265 0760589 269.1343  71.7999  1.00287038  7503
COSMOS 2522 [GLONASS-M] 
1 42939U 17055A   26153.10670400  .00000070  00000+0  00000+0 0  9995
2 42939  64.0774 192.3978 0010513 239.6203 120.3566  2.13102000 67657
QZS-4 (MICHIBIKI-4)     
1 42965U 17062A   26155.37249061 -.00000321  00000+0  00000+0 0  9998
2 42965  40.1160 343.6465 0744830 271.5298 269.7386  1.00255482 31676
BEIDOU-3 M1             
1 43001U 17069A   26156.85695868 -.00000038  00000+0  00000+0 0  9996
2 43001  56.6823  63.4582 0010790 323.7021  36.2527  1.86231597 58395
BEIDOU-3 M2             
1 43002U 17069B   26156.25871934 -.00000038  00000+0  00000+0 0  9991
2 43002  56.6818  63.5130 0009405 347.9900  12.0146  1.86231067 58374
